start=new Date('2021-12-09T00:00:00.000Z').valueOf();
sats=[{"ECCENTRICITY":"0.00013230","DECAY_DATE":null,"PERIOD":"93.287","CLASSIFICATION_TYPE":"U","MEAN_ELEMENT_THEORY":"SGP4","EPHEMERIS_TYPE":"0","TLE_LINE1":"1 46590U 20070BL  21342.87520332 -.00063825  00000-0 -13988-2 0  9992","GP_ID":"191364954","APOAPSIS":"436.347","OBJECT_NAME":"STARLINK-1754","ARG_OF_PERICENTER":"102.4893","MEAN_ANOMALY":"257.6260","MEAN_MOTION":"15.43617385","FILE":"3235972","REF_FRAME":"TEME","INCLINATION":"53.0554","ELEMENT_SET_NO":"999","LAUNCH_DATE":"2020-10-06","CENTER_NAME":"EARTH","TLE_LINE2":"2 46590  53.0554 196.3840 0001323 102.4893 257.6260 15.43617385 67100","EPOCH":"2021-12-08T21:00:17.566848","PERIAPSIS":"434.544","BSTAR":"-0.00139880000000","MEAN_MOTION_DDOT":"0.0000000000000","RA_OF_ASC_NODE":"196.3840","COUNTRY_CODE":"US","SEMIMAJOR_AXIS":"6813.581","OBJECT_ID":"2020-070BL","MEAN_MOTION_DOT":"-0.00063825","OBJECT_TYPE":"PAYLOAD","RCS_SIZE":"LARGE","NORAD_CAT_ID":"46590","TIME_SYSTEM":"UTC","SITE":"AFETR","REV_AT_EPOCH":"6710"},{"OBJECT_TYPE":"PAYLOAD","MEAN_MOTION_DOT":"0.00001393","SEMIMAJOR_AXIS":"6925.351","OBJECT_ID":"2020-070BM","SITE":"AFETR","REV_AT_EPOCH":"6491","RCS_SIZE":"LARGE","NORAD_CAT_ID":"46591","TIME_SYSTEM":"UTC","CENTER_NAME":"EARTH","BSTAR":"0.00011243000000","MEAN_MOTION_DDOT":"0.0000000000000","RA_OF_ASC_NODE":"283.9698","COUNTRY_CODE":"US","TLE_LINE2":"2 46591  53.0543 283.9698 0002132  55.7513 304.3678 15.06399137 64911","EPOCH":"2021-12-08T15:47:47.849280","PERIAPSIS":"545.740","APOAPSIS":"548.693","OBJECT_NAME":"STARLINK-1755","GP_ID":"191364704","FILE":"3235972","INCLINATION":"53.0543","REF_FRAME":"TEME","ELEMENT_SET_NO":"999","LAUNCH_DATE":"2020-10-06","MEAN_ANOMALY":"304.3678","ARG_OF_PERICENTER":"55.7513","MEAN_MOTION":"15.06399137","PERIOD":"95.592","DECAY_DATE":null,"CLASSIFICATION_TYPE":"U","ECCENTRICITY":"0.00021320","MEAN_ELEMENT_THEORY":"SGP4","TLE_LINE1":"1 46591U 20070BM  21342.65819270  .00001393  00000-0  11243-3 0  9994","EPHEMERIS_TYPE":"0"},{"CLASSIFICATION_TYPE":"U","DECAY_DATE":null,"PERIOD":"95.592","ECCENTRICITY":"0.00013350","EPHEMERIS_TYPE":"0","TLE_LINE1":"1 46671U 20073B   21342.79640171 -.00000399  00000-0 -78688-5 0  9998","MEAN_ELEMENT_THEORY":"SGP4","OBJECT_NAME":"STARLINK-1715","APOAPSIS":"548.146","GP_ID":"191364962","ELEMENT_SET_NO":"999","LAUNCH_DATE":"2020-10-18","FILE":"3235972","INCLINATION":"53.0561","REF_FRAME":"TEME","MEAN_MOTION":"15.06397396","ARG_OF_PERICENTER":"65.9276","MEAN_ANOMALY":"294.1853","CENTER_NAME":"EARTH","RA_OF_ASC_NODE":"13.3402","COUNTRY_CODE":"US","BSTAR":"-0.00000786880000","MEAN_MOTION_DDOT":"0.0000000000000","EPOCH":"2021-12-08T19:06:49.107744","PERIAPSIS":"546.297","TLE_LINE2":"2 46671  53.0561  13.3402 0001335  65.9276 294.1853 15.06397396 63152","OBJECT_TYPE":"PAYLOAD","MEAN_MOTION_DOT":"-0.00000399","OBJECT_ID":"2020-073B","SEMIMAJOR_AXIS":"6925.357","REV_AT_EPOCH":"6315","SITE":"AFETR","TIME_SYSTEM":"UTC","NORAD_CAT_ID":"46671","RCS_SIZE":"LARGE"},{"TLE_LINE2":"2 46672  53.0552   8.4509 0001578  71.8801 288.2360 15.06388254 63223","PERIAPSIS":"546.157","EPOCH":"2021-12-08T18:29:02.207616","MEAN_MOTION_DDOT":"0.0000000000000","BSTAR":"0.00001853400000","COUNTRY_CODE":"US","RA_OF_ASC_NODE":"8.4509","CENTER_NAME":"EARTH","RCS_SIZE":"LARGE","NORAD_CAT_ID":"46672","TIME_SYSTEM":"UTC","SITE":"AFETR","REV_AT_EPOCH":"6322","SEMIMAJOR_AXIS":"6925.385","OBJECT_ID":"2020-073C","MEAN_MOTION_DOT":"-0.00000006","OBJECT_TYPE":"PAYLOAD","MEAN_ELEMENT_THEORY":"SGP4","TLE_LINE1":"1 46672U 20073C   21342.77016444 -.00000006  00000-0  18534-4 0  9994","EPHEMERIS_TYPE":"0","ECCENTRICITY":"0.00015780","PERIOD":"95.593","DECAY_DATE":null,"CLASSIFICATION_TYPE":"U","ARG_OF_PERICENTER":"71.8801","MEAN_ANOMALY":"288.2360","MEAN_MOTION":"15.06388254","FILE":"3235972","INCLINATION":"53.0552","REF_FRAME":"TEME","LAUNCH_DATE":"2020-10-18","ELEMENT_SET_NO":"999","GP_ID":"191364712","APOAPSIS":"548.342","OBJECT_NAME":"STARLINK-1716"},{"COUNTRY_CODE":"US","RA_OF_ASC_NODE":"25.0874","MEAN_MOTION_DDOT":"0.0000000000000","BSTAR":"0.00005555200000","PERIAPSIS":"546.131","EPOCH":"2021-12-08T09:48:10.058400","TLE_LINE2":"2 46673  53.0562  25.0874 0001573  64.7921 295.3231 15.06397794 62958","CENTER_NAME":"EARTH","REV_AT_EPOCH":"6295","SITE":"AFETR","NORAD_CAT_ID":"46673","TIME_SYSTEM":"UTC","RCS_SIZE":"LARGE","MEAN_MOTION_DOT":"0.00000546","OBJECT_TYPE":"PAYLOAD","OBJECT_ID":"2020-073D","SEMIMAJOR_AXIS":"6925.355","EPHEMERIS_TYPE":"0","TLE_LINE1":"1 46673U 20073D   21342.40844975  .00000546  00000-0  55552-4 0  9992","MEAN_ELEMENT_THEORY":"SGP4","CLASSIFICATION_TYPE":"U","DECAY_DATE":null,"PERIOD":"95.592","ECCENTRICITY":"0.00015730","LAUNCH_DATE":"2020-10-18","ELEMENT_SET_NO":"999","FILE":"3235746","REF_FRAME":"TEME","INCLINATION":"53.0562","MEAN_MOTION":"15.06397794","MEAN_ANOMALY":"295.3231","ARG_OF_PERICENTER":"64.7921","OBJECT_NAME":"STARLINK-1717","APOAPSIS":"548.310","GP_ID":"191335222"},{"MEAN_ELEMENT_THEORY":"SGP4","EPHEMERIS_TYPE":"0","TLE_LINE1":"1 46674U 20073E   21342.86231273 -.00000135  00000-0  98302-5 0  9990","ECCENTRICITY":"0.00016210","PERIOD":"95.593","DECAY_DATE":null,"CLASSIFICATION_TYPE":"U","ARG_OF_PERICENTER":"65.1162","MEAN_ANOMALY":"294.9996","MEAN_MOTION":"15.06394097","INCLINATION":"53.0560","FILE":"3235972","REF_FRAME":"TEME","ELEMENT_SET_NO":"999","LAUNCH_DATE":"2020-10-18","GP_ID":"191363710","APOAPSIS":"548.354","OBJECT_NAME":"STARLINK-1718","TLE_LINE2":"2 46674  53.0560   8.0473 0001621  65.1162 294.9996 15.06394097 63237","EPOCH":"2021-12-08T20:41:43.819872","PERIAPSIS":"546.109","BSTAR":"0.00000983020000","MEAN_MOTION_DDOT":"0.0000000000000","RA_OF_ASC_NODE":"8.0473","COUNTRY_CODE":"US","CENTER_NAME":"EARTH","RCS_SIZE":"LARGE","NORAD_CAT_ID":"46674","TIME_SYSTEM":"UTC","SITE":"AFETR","REV_AT_EPOCH":"6323","SEMIMAJOR_AXIS":"6925.367","OBJECT_ID":"2020-073E","MEAN_MOTION_DOT":"-0.00000135","OBJECT_TYPE":"PAYLOAD"},{"BSTAR":"0.00010180000000","MEAN_MOTION_DDOT":"0.0000000000000","RA_OF_ASC_NODE":"8.3645","COUNTRY_CODE":"US","TLE_LINE2":"2 46675  53.0561   8.3645 0001678  50.7402 309.3735 15.06400228 63227","EPOCH":"2021-12-08T19:00:52.000992","PERIAPSIS":"546.051","CENTER_NAME":"EARTH","SITE":"AFETR","REV_AT_EPOCH":"6322","RCS_SIZE":"LARGE","NORAD_CAT_ID":"46675","TIME_SYSTEM":"UTC","OBJECT_TYPE":"PAYLOAD","MEAN_MOTION_DOT":"0.00001235","SEMIMAJOR_AXIS":"6925.348","OBJECT_ID":"2020-073F","MEAN_ELEMENT_THEORY":"SGP4","EPHEMERIS_TYPE":"0","TLE_LINE1":"1 46675U 20073F   21342.79226853  .00001235  00000-0  10180-3 0  9998","PERIOD":"95.592","DECAY_DATE":null,"CLASSIFICATION_TYPE":"U","ECCENTRICITY":"0.00016780","REF_FRAME":"TEME","FILE":"3235972","INCLINATION":"53.0561","ELEMENT_SET_NO":"999","LAUNCH_DATE":"2020-10-18","ARG_OF_PERICENTER":"50.7402","MEAN_ANOMALY":"309.3735","MEAN_MOTION":"15.06400228","APOAPSIS":"548.375","OBJECT_NAME":"STARLINK-1720","GP_ID":"191364462"},{"EPHEMERIS_TYPE":"0","TLE_LINE1":"1 46677U 20073H   21342.78859154 -.00000001  00000-0  18859-4 0  9998","MEAN_ELEMENT_THEORY":"SGP4","CLASSIFICATION_TYPE":"U","PERIOD":"95.592","DECAY_DATE":null,"ECCENTRICITY":"0.00014810","LAUNCH_DATE":"2020-10-18","ELEMENT_SET_NO":"999","FILE":"3235972","REF_FRAME":"TEME","INCLINATION":"53.0554","MEAN_MOTION":"15.06398523","MEAN_ANOMALY":"294.6913","ARG_OF_PERICENTER":"65.4230","OBJECT_NAME":"STARLINK-1766","APOAPSIS":"548.244","GP_ID":"191365213","COUNTRY_CODE":"US","RA_OF_ASC_NODE":"8.3796","MEAN_MOTION_DDOT":"0.0000000000000","BSTAR":"0.00001885900000","PERIAPSIS":"546.192","EPOCH":"2021-12-08T18:55:34.309056","TLE_LINE2":"2 46677  53.0554   8.3796 0001481  65.4230 294.6913 15.06398523 63220","CENTER_NAME":"EARTH","REV_AT_EPOCH":"6322","SITE":"AFETR","NORAD_CAT_ID":"46677","TIME_SYSTEM":"UTC","RCS_SIZE":"LARGE","OBJECT_TYPE":"PAYLOAD","MEAN_MOTION_DOT":"-0.00000001","OBJECT_ID":"2020-073H","SEMIMAJOR_AXIS":"6925.353"},{"SITE":"AFETR","REV_AT_EPOCH":"6349","RCS_SIZE":"LARGE","NORAD_CAT_ID":"46679","TIME_SYSTEM":"UTC","OBJECT_TYPE":"PAYLOAD","MEAN_MOTION_DOT":"0.00001706","SEMIMAJOR_AXIS":"6925.359","OBJECT_ID":"2020-073K","BSTAR":"0.00013337000000","MEAN_MOTION_DDOT":"0.0000000000000","RA_OF_ASC_NODE":"348.6310","COUNTRY_CODE":"US","TLE_LINE2":"2 46679  53.0557 348.6310 0001072  44.3206 315.7869 15.06396558 63492","EPOCH":"2021-12-08T17:27:59.279616","PERIAPSIS":"546.482","CENTER_NAME":"EARTH","FILE":"3235972","INCLINATION":"53.0557","REF_FRAME":"TEME","ELEMENT_SET_NO":"999","LAUNCH_DATE":"2020-10-18","ARG_OF_PERICENTER":"44.3206","MEAN_ANOMALY":"315.7869","MEAN_MOTION":"15.06396558","APOAPSIS":"547.967","OBJECT_NAME":"STARLINK-1773","GP_ID":"191363961","MEAN_ELEMENT_THEORY":"SGP4","EPHEMERIS_TYPE":"0","TLE_LINE1":"1 46679U 20073K   21342.72776944  .00001706  00000-0  13337-3 0  9996","DECAY_DATE":null,"PERIOD":"95.592","CLASSIFICATION_TYPE":"U","ECCENTRICITY":"0.00010720"},{"CENTER_NAME":"EARTH","RA_OF_ASC_NODE":"24.2201","COUNTRY_CODE":"US","BSTAR":"0.00009672400000","MEAN_MOTION_DDOT":"0.0000000000000","EPOCH":"2021-12-08T14:20:12.966720","PERIAPSIS":"546.135","TLE_LINE2":"2 46680  53.0553  24.2201 0001553  67.4307 292.6846 15.06400902 62988","OBJECT_TYPE":"PAYLOAD","MEAN_MOTION_DOT":"0.00001159","OBJECT_ID":"2020-073L","SEMIMAJOR_AXIS":"6925.346","REV_AT_EPOCH":"6298","SITE":"AFETR","NORAD_CAT_ID":"46680","TIME_SYSTEM":"UTC","RCS_SIZE":"LARGE","CLASSIFICATION_TYPE":"U","DECAY_DATE":null,"PERIOD":"95.592","ECCENTRICITY":"0.00015530","EPHEMERIS_TYPE":"0","TLE_LINE1":"1 46680U 20073L   21342.59737230  .00001159  00000-0  96724-4 0  9992","MEAN_ELEMENT_THEORY":"SGP4","OBJECT_NAME":"STARLINK-1774","APOAPSIS":"548.286","GP_ID":"191364211","ELEMENT_SET_NO":"999","LAUNCH_DATE":"2020-10-18","FILE":"3235972","INCLINATION":"53.0553","REF_FRAME":"TEME","MEAN_MOTION":"15.06400902","ARG_OF_PERICENTER":"67.4307","MEAN_ANOMALY":"292.6846"}];
